{
  "type": "FeatureCollection",
  "features": [
    {
      "type": "Feature",
      "properties": {
        "norad_id": 35959,
        "name": "COSMOS 2251 DEB",
        "group": "cosmos-2251-debris",
        "lat": -59.55995319458672,
        "lon": 146.81460481672084,
        "alt_km": 795.2281267121061,
        "timestamp": "2025-12-20T14:38:02.365986+00:00",
        "meta_object_name": "COSMOS 2251 DEB",
        "meta_object_id": "1993-036AUZ",
        "meta_epoch": "2025-12-20T03:27:21.166272",
        "meta_mean_motion": 14.34140877,
        "meta_eccentricity": 0.00218938,
        "meta_inclination": 74.033,
        "meta_ra_of_asc_node": 298.509,
        "meta_arg_of_pericenter": 16.9587,
        "meta_mean_anomaly": 343.2292,
        "meta_ephemeris_type": 0,
        "meta_classification_type": "U",
        "meta_norad_cat_id": 35959,
        "meta_element_set_no": 999,
        "meta_rev_at_epoch": 85034,
        "meta_bstar": 8.8222868e-05,
        "meta_mean_motion_dot": 2.22e-06,
        "meta_mean_motion_ddot": 0,
        "tle_line1": "1 35959U 93036AUZ 25354.14399498  .00000222  00000+0  88223-4 0  9990",
        "tle_line2": "2 35959  74.0330 298.5090 0021893  16.9587 343.2292 14.34140877850346"
      },
      "geometry": {
        "type": "Point",
        "coordinates": [
          146.81460481672084,
          -59.55995319458672
        ]
      }
    },
    {
      "type": "Feature",
      "properties": {
        "norad_id": 35961,
        "name": "COSMOS 2251 DEB",
        "group": "cosmos-2251-debris",
        "lat": 71.4569904308042,
        "lon": -110.38019529494956,
        "alt_km": 762.5480956072088,
        "timestamp": "2025-12-20T14:38:02.365995+00:00",
        "meta_object_name": "COSMOS 2251 DEB",
        "meta_object_id": "1993-036AVB",
        "meta_epoch": "2025-12-18T21:15:12.372768",
        "meta_mean_motion": 14.05418101,
        "meta_eccentricity": 0.01915239,
        "meta_inclination": 73.9239,
        "meta_ra_of_asc_node": 193.3704,
        "meta_arg_of_pericenter": 125.5075,
        "meta_mean_anomaly": 236.4097,
        "meta_ephemeris_type": 0,
        "meta_classification_type": "U",
        "meta_norad_cat_id": 35961,
        "meta_element_set_no": 999,
        "meta_rev_at_epoch": 62768,
        "meta_bstar": 0.0011788636,
        "meta_mean_motion_dot": 2.232e-05,
        "meta_mean_motion_ddot": 0,
        "tle_line1": "1 35961U 93036AVB 25352.88555987  .00002232  00000+0  11789-2 0  9993",
        "tle_line2": "2 35961  73.9239 193.3704 0191523 125.5075 236.4097 14.05418101627687"
      },
      "geometry": {
        "type": "Point",
        "coordinates": [
          -110.38019529494956,
          71.4569904308042
        ]
      }
    },
    {
      "type": "Feature",
      "properties": {
        "norad_id": 35979,
        "name": "COSMOS 2251 DEB",
        "group": "cosmos-2251-debris",
        "lat": 45.39408699459782,
        "lon": 26.08474626316039,
        "alt_km": 672.9625877295075,
        "timestamp": "2025-12-20T14:38:02.366005+00:00",
        "meta_object_name": "COSMOS 2251 DEB",
        "meta_object_id": "1993-036AVV",
        "meta_epoch": "2025-12-19T21:49:20.667936",
        "meta_mean_motion": 14.74720129,
        "meta_eccentricity": 0.0059181,
        "meta_inclination": 74.0091,
        "meta_ra_of_asc_node": 224.3569,
        "meta_arg_of_pericenter": 354.8475,
        "meta_mean_anomaly": 19.529,
        "meta_ephemeris_type": 0,
        "meta_classification_type": "U",
        "meta_norad_cat_id": 35979,
        "meta_element_set_no": 999,
        "meta_rev_at_epoch": 88739,
        "meta_bstar": 0.00048194,
        "meta_mean_motion_dot": 3.28e-05,
        "meta_mean_motion_ddot": 0,
        "tle_line1": "1 35979U 93036AVV 25353.90926699  .00003280  00000+0  48194-3 0  9993",
        "tle_line2": "2 35979  74.0091 224.3569 0059181 354.8475  19.5290 14.74720129887395"
      },
      "geometry": {
        "type": "Point",
        "coordinates": [
          26.08474626316039,
          45.39408699459782
        ]
      }
    },
    {
      "type": "Feature",
      "properties": {
        "norad_id": 35980,
        "name": "COSMOS 2251 DEB",
        "group": "cosmos-2251-debris",
        "lat": -59.30111205659685,
        "lon": 78.48423318254406,
        "alt_km": 680.3935680834247,
        "timestamp": "2025-12-20T14:38:02.366015+00:00",
        "meta_object_name": "COSMOS 2251 DEB",
        "meta_object_id": "1993-036AVW",
        "meta_epoch": "2025-12-15T01:39:40.666752",
        "meta_mean_motion": 14.5933919,
        "meta_eccentricity": 0.00539648,
        "meta_inclination": 73.9111,
        "meta_ra_of_asc_node": 118.2073,
        "meta_arg_of_pericenter": 252.458,
        "meta_mean_anomaly": 107.0684,
        "meta_ephemeris_type": 0,
        "meta_classification_type": "U",
        "meta_norad_cat_id": 35980,
        "meta_element_set_no": 999,
        "meta_rev_at_epoch": 61520,
        "meta_bstar": 0.00098659578,
        "meta_mean_motion_dot": 4.733e-05,
        "meta_mean_motion_ddot": 0,
        "tle_line1": "1 35980U 93036AVW 25349.06922068  .00004733  00000+0  98660-3 0  9990",
        "tle_line2": "2 35980  73.9111 118.2073 0053964 252.4580 107.0684 14.59339190615208"
      },
      "geometry": {
        "type": "Point",
        "coordinates": [
          78.48423318254406,
          -59.30111205659685
        ]
      }
    },
    {
      "type": "Feature",
      "properties": {
        "norad_id": 35982,
        "name": "COSMOS 2251 DEB",
        "group": "cosmos-2251-debris",
        "lat": -42.1231002223788,
        "lon": -43.11718954506465,
        "alt_km": 682.2505630903652,
        "timestamp": "2025-12-20T14:38:02.366025+00:00",
        "meta_object_name": "COSMOS 2251 DEB",
        "meta_object_id": "1993-036AVY",
        "meta_epoch": "2025-12-20T04:59:10.390560",
        "meta_mean_motion": 14.62789912,
        "meta_eccentricity": 0.00644197,
        "meta_inclination": 74.0579,
        "meta_ra_of_asc_node": 332.6323,
        "meta_arg_of_pericenter": 36.7267,
        "meta_mean_anomaly": 323.8288,
        "meta_ephemeris_type": 0,
        "meta_classification_type": "U",
        "meta_norad_cat_id": 35982,
        "meta_element_set_no": 999,
        "meta_rev_at_epoch": 86275,
        "meta_bstar": 0.00041144013,
        "meta_mean_motion_dot": 2.132e-05,
        "meta_mean_motion_ddot": 0,
        "tle_line1": "1 35982U 93036AVY 25354.20775915  .00002132  00000+0  41144-3 0  9997",
        "tle_line2": "2 35982  74.0579 332.6323 0064419  36.7267 323.8288 14.62789912862759"
      },
      "geometry": {
        "type": "Point",
        "coordinates": [
          -43.11718954506465,
          -42.1231002223788
        ]
      }
    },
    {
      "type": "Feature",
      "properties": {
        "norad_id": 35987,
        "name": "COSMOS 2251 DEB",
        "group": "cosmos-2251-debris",
        "lat": 60.68489455263826,
        "lon": 101.26733153410595,
        "alt_km": 716.2715924866498,
        "timestamp": "2025-12-20T14:38:02.366034+00:00",
        "meta_object_name": "COSMOS 2251 DEB",
        "meta_object_id": "1993-036AWD",
        "meta_epoch": "2025-12-14T05:02:56.141664",
        "meta_mean_motion": 14.43139491,
        "meta_eccentricity": 0.00459797,
        "meta_inclination": 73.9997,
        "meta_ra_of_asc_node": 323.9049,
        "meta_arg_of_pericenter": 89.0828,
        "meta_mean_anomaly": 271.5596,
        "meta_ephemeris_type": 0,
        "meta_classification_type": "U",
        "meta_norad_cat_id": 35987,
        "meta_element_set_no": 999,
        "meta_rev_at_epoch": 61086,
        "meta_bstar": 0.001182332,
        "meta_mean_motion_dot": 3.997e-05,
        "meta_mean_motion_ddot": 0,
        "tle_line1": "1 35987U 93036AWD 25348.21037201  .00003997  00000+0  11823-2 0  9995",
        "tle_line2": "2 35987  73.9997 323.9049 0045979  89.0828 271.5596 14.43139491610862"
      },
      "geometry": {
        "type": "Point",
        "coordinates": [
          101.26733153410595,
          60.68489455263826
        ]
      }
    },
    {
      "type": "Feature",
      "properties": {
        "norad_id": 35989,
        "name": "COSMOS 2251 DEB",
        "group": "cosmos-2251-debris",
        "lat": -11.494968407459288,
        "lon": -93.97913047643185,
        "alt_km": 756.0723940860607,
        "timestamp": "2025-12-20T14:38:02.366044+00:00",
        "meta_object_name": "COSMOS 2251 DEB",
        "meta_object_id": "1993-036AWF",
        "meta_epoch": "2025-12-20T01:19:25.605408",
        "meta_mean_motion": 14.37111665,
        "meta_eccentricity": 0.00223466,
        "meta_inclination": 74.0357,
        "meta_ra_of_asc_node": 270.3777,
        "meta_arg_of_pericenter": 350.9982,
        "meta_mean_anomaly": 9.0768,
        "meta_ephemeris_type": 0,
        "meta_classification_type": "U",
        "meta_norad_cat_id": 35989,
        "meta_element_set_no": 999,
        "meta_rev_at_epoch": 87284,
        "meta_bstar": 0.00015999512,
        "meta_mean_motion_dot": 4.5e-06,
        "meta_mean_motion_ddot": 0,
        "tle_line1": "1 35989U 93036AWF 25354.05515747  .00000450  00000+0  16000-3 0  9996",
        "tle_line2": "2 35989  74.0357 270.3777 0022346 350.9982   9.0768 14.37111665872842"
      },
      "geometry": {
        "type": "Point",
        "coordinates": [
          -93.97913047643185,
          -11.494968407459288
        ]
      }
    }
  ]
}